[{"OBJECT_NAME":"STARLINK-2130","OBJECT_ID":"2021-005BJ","EPOCH":"2026-03-09T22:00:01.999584","MEAN_MOTION":15.13281919,"ECCENTRICITY":9.04e-5,"INCLINATION":53.0824,"RA_OF_ASC_NODE":60.4652,"ARG_OF_PERICENTER":98.9543,"MEAN_ANOMALY":231.3183,"EPHEMERIS_TYPE":0,"CLASSIFICATION_TYPE":"U","NORAD_CAT_ID":47405,"ELEMENT_SET_NO":999,"REV_AT_EPOCH":577,"BSTAR":0.0047989854,"MEAN_MOTION_DOT":0.0008714,"MEAN_MOTION_DDOT":0},{"OBJECT_NAME":"KOYOH","OBJECT_ID":"2023-185C","EPOCH":"2026-03-09T23:57:30.987648","MEAN_MOTION":15.16984541,"ECCENTRICITY":0.00055962,"INCLINATION":97.5396,"RA_OF_ASC_NODE":141.7167,"ARG_OF_PERICENTER":294.7057,"MEAN_ANOMALY":65.3594,"EPHEMERIS_TYPE":0,"CLASSIFICATION_TYPE":"U","NORAD_CAT_ID":58464,"ELEMENT_SET_NO":999,"REV_AT_EPOCH":12508,"BSTAR":0.00043532489,"MEAN_MOTION_DOT":8.537e-5,"MEAN_MOTION_DDOT":0}]
